STARLINK-31663          
1 59576U 24076N   26068.19315684 -.00001934  00000+0 -60810-4 0  9997
2 59576  43.0028  12.0711 0001489 274.3528  85.7154 15.27564134106427
FLOCK 4G-7              
1 62624U 25009R   26068.79996108  .00011422  00000+0  43168-3 0  9991
2 62624  97.3984 150.8270 0001396 336.9783  23.1393 15.27141471 63725
